{
  "type": "FeatureCollection",
  "features": [
    {
      "type": "Feature",
      "properties": {
        "norad_id": 31823,
        "name": "FENGYUN 1C DEB",
        "group": "fengyun-1c-debris",
        "lat": 63.0409782983382,
        "lon": 55.9778634866833,
        "alt_km": 690.8794260726345,
        "timestamp": "2025-12-14T16:47:40.968021+00:00",
        "meta_object_name": "FENGYUN 1C DEB",
        "meta_object_id": "1999-025CHM",
        "meta_epoch": "2025-12-12T23:32:22.819488",
        "meta_mean_motion": 14.65703512,
        "meta_eccentricity": 0.00371402,
        "meta_inclination": 99.5108,
        "meta_ra_of_asc_node": 73.2356,
        "meta_arg_of_pericenter": 218.7256,
        "meta_mean_anomaly": 141.1279,
        "meta_ephemeris_type": 0,
        "meta_classification_type": "U",
        "meta_norad_cat_id": 31823,
        "meta_element_set_no": 999,
        "meta_rev_at_epoch": 96721,
        "meta_bstar": 0.0021041971,
        "meta_mean_motion_dot": 0.00011525,
        "meta_mean_motion_ddot": 0,
        "tle_line1": "1 31823U 99025CHM 25346.98081967  .00011525  00000+0  21042-2 0  9994",
        "tle_line2": "2 31823  99.5108  73.2356 0037140 218.7256 141.1279 14.65703512967217"
      },
      "geometry": {
        "type": "Point",
        "coordinates": [
          55.9778634866833,
          63.0409782983382
        ]
      }
    },
    {
      "type": "Feature",
      "properties": {
        "norad_id": 31825,
        "name": "FENGYUN 1C DEB",
        "group": "fengyun-1c-debris",
        "lat": -4.1105204474791615,
        "lon": 167.6269946248794,
        "alt_km": 924.3871519519826,
        "timestamp": "2025-12-14T16:47:40.968032+00:00",
        "meta_object_name": "FENGYUN 1C DEB",
        "meta_object_id": "1999-025CHP",
        "meta_epoch": "2025-12-13T19:39:13.615776",
        "meta_mean_motion": 14.21652106,
        "meta_eccentricity": 0.0165538,
        "meta_inclination": 98.5908,
        "meta_ra_of_asc_node": 347.3916,
        "meta_arg_of_pericenter": 335.2047,
        "meta_mean_anomaly": 24.124,
        "meta_ephemeris_type": 0,
        "meta_classification_type": "U",
        "meta_norad_cat_id": 31825,
        "meta_element_set_no": 999,
        "meta_rev_at_epoch": 95637,
        "meta_bstar": 0.000959457,
        "meta_mean_motion_dot": 2.376e-05,
        "meta_mean_motion_ddot": 0,
        "tle_line1": "1 31825U 99025CHP 25347.81890759  .00002376  00000+0  95946-3 0  9995",
        "tle_line2": "2 31825  98.5908 347.3916 0165538 335.2047  24.1240 14.21652106956376"
      },
      "geometry": {
        "type": "Point",
        "coordinates": [
          167.6269946248794,
          -4.1105204474791615
        ]
      }
    },
    {
      "type": "Feature",
      "properties": {
        "norad_id": 31826,
        "name": "FENGYUN 1C DEB",
        "group": "fengyun-1c-debris",
        "lat": 31.462167395128485,
        "lon": -25.55376510293317,
        "alt_km": 904.403458259455,
        "timestamp": "2025-12-14T16:47:40.968042+00:00",
        "meta_object_name": "FENGYUN 1C DEB",
        "meta_object_id": "1999-025CHQ",
        "meta_epoch": "2025-12-13T22:10:25.815360",
        "meta_mean_motion": 14.19277046,
        "meta_eccentricity": 0.01240082,
        "meta_inclination": 98.626,
        "meta_ra_of_asc_node": 339.0202,
        "meta_arg_of_pericenter": 185.8793,
        "meta_mean_anomaly": 204.7677,
        "meta_ephemeris_type": 0,
        "meta_classification_type": "U",
        "meta_norad_cat_id": 31826,
        "meta_element_set_no": 999,
        "meta_rev_at_epoch": 95831,
        "meta_bstar": 0.00045923419,
        "meta_mean_motion_dot": 9.98e-06,
        "meta_mean_motion_ddot": 0,
        "tle_line1": "1 31826U 99025CHQ 25347.92390990  .00000998  00000+0  45923-3 0  9998",
        "tle_line2": "2 31826  98.6260 339.0202 0124008 185.8793 204.7677 14.19277046958318"
      },
      "geometry": {
        "type": "Point",
        "coordinates": [
          -25.55376510293317,
          31.462167395128485
        ]
      }
    },
    {
      "type": "Feature",
      "properties": {
        "norad_id": 31829,
        "name": "FENGYUN 1C DEB",
        "group": "fengyun-1c-debris",
        "lat": 5.281467616078255,
        "lon": 157.60260434276918,
        "alt_km": 1045.77364035156,
        "timestamp": "2025-12-14T16:47:40.968052+00:00",
        "meta_object_name": "FENGYUN 1C DEB",
        "meta_object_id": "1999-025CHT",
        "meta_epoch": "2025-12-10T17:46:33.788640",
        "meta_mean_motion": 13.88679676,
        "meta_eccentricity": 0.01690998,
        "meta_inclination": 98.8354,
        "meta_ra_of_asc_node": 154.6728,
        "meta_arg_of_pericenter": 169.8915,
        "meta_mean_anomaly": 214.6031,
        "meta_ephemeris_type": 0,
        "meta_classification_type": "U",
        "meta_norad_cat_id": 31829,
        "meta_element_set_no": 999,
        "meta_rev_at_epoch": 94120,
        "meta_bstar": 0.00069465665,
        "meta_mean_motion_dot": 8.98e-06,
        "meta_mean_motion_ddot": 0,
        "tle_line1": "1 31829U 99025CHT 25344.74066885  .00000898  00000+0  69466-3 0  9998",
        "tle_line2": "2 31829  98.8354 154.6728 0169099 169.8915 214.6031 13.88679676941202"
      },
      "geometry": {
        "type": "Point",
        "coordinates": [
          157.60260434276918,
          5.281467616078255
        ]
      }
    },
    {
      "type": "Feature",
      "properties": {
        "norad_id": 31830,
        "name": "FENGYUN 1C DEB",
        "group": "fengyun-1c-debris",
        "lat": -21.126424043712095,
        "lon": 97.9120554115532,
        "alt_km": 839.9451402108525,
        "timestamp": "2025-12-14T16:47:40.968063+00:00",
        "meta_object_name": "FENGYUN 1C DEB",
        "meta_object_id": "1999-025CHU",
        "meta_epoch": "2025-12-13T06:19:07.553568",
        "meta_mean_motion": 13.83423454,
        "meta_eccentricity": 0.01822832,
        "meta_inclination": 99.1629,
        "meta_ra_of_asc_node": 92.9368,
        "meta_arg_of_pericenter": 313.0989,
        "meta_mean_anomaly": 74.1788,
        "meta_ephemeris_type": 0,
        "meta_classification_type": "U",
        "meta_norad_cat_id": 31830,
        "meta_element_set_no": 999,
        "meta_rev_at_epoch": 92747,
        "meta_bstar": 0.0026219121,
        "meta_mean_motion_dot": 3.236e-05,
        "meta_mean_motion_ddot": 0,
        "tle_line1": "1 31830U 99025CHU 25347.26328187  .00003236  00000+0  26219-2 0  9993",
        "tle_line2": "2 31830  99.1629  92.9368 0182283 313.0989  74.1788 13.83423454927478"
      },
      "geometry": {
        "type": "Point",
        "coordinates": [
          97.9120554115532,
          -21.126424043712095
        ]
      }
    },
    {
      "type": "Feature",
      "properties": {
        "norad_id": 31834,
        "name": "FENGYUN 1C DEB",
        "group": "fengyun-1c-debris",
        "lat": -79.33029444151677,
        "lon": -22.62802016361121,
        "alt_km": 1006.1053429317872,
        "timestamp": "2025-12-14T16:47:40.968072+00:00",
        "meta_object_name": "FENGYUN 1C DEB",
        "meta_object_id": "1999-025CHY",
        "meta_epoch": "2025-12-13T20:43:29.265888",
        "meta_mean_motion": 14.03153663,
        "meta_eccentricity": 0.01628172,
        "meta_inclination": 98.3679,
        "meta_ra_of_asc_node": 207.9757,
        "meta_arg_of_pericenter": 74.4166,
        "meta_mean_anomaly": 287.4907,
        "meta_ephemeris_type": 0,
        "meta_classification_type": "U",
        "meta_norad_cat_id": 31834,
        "meta_element_set_no": 999,
        "meta_rev_at_epoch": 63726,
        "meta_bstar": 0.00029597728,
        "meta_mean_motion_dot": 4.8e-06,
        "meta_mean_motion_ddot": 0,
        "tle_line1": "1 31834U 99025CHY 25347.86353317  .00000480  00000+0  29598-3 0  9998",
        "tle_line2": "2 31834  98.3679 207.9757 0162817  74.4166 287.4907 14.03153663637266"
      },
      "geometry": {
        "type": "Point",
        "coordinates": [
          -22.62802016361121,
          -79.33029444151677
        ]
      }
    },
    {
      "type": "Feature",
      "properties": {
        "norad_id": 31837,
        "name": "FENGYUN 1C DEB",
        "group": "fengyun-1c-debris",
        "lat": 6.854162309832774,
        "lon": 63.283359349486254,
        "alt_km": 558.8972483133466,
        "timestamp": "2025-12-14T16:47:40.968082+00:00",
        "meta_object_name": "FENGYUN 1C DEB",
        "meta_object_id": "1999-025CJB",
        "meta_epoch": "2025-12-13T22:56:35.025216",
        "meta_mean_motion": 14.82268062,
        "meta_eccentricity": 0.00935726,
        "meta_inclination": 98.1004,
        "meta_ra_of_asc_node": 63.5114,
        "meta_arg_of_pericenter": 13.9205,
        "meta_mean_anomaly": 346.4555,
        "meta_ephemeris_type": 0,
        "meta_classification_type": "U",
        "meta_norad_cat_id": 31837,
        "meta_element_set_no": 999,
        "meta_rev_at_epoch": 98377,
        "meta_bstar": 0.0011611265,
        "meta_mean_motion_dot": 9.957e-05,
        "meta_mean_motion_ddot": 0,
        "tle_line1": "1 31837U 99025CJB 25347.95596094  .00009957  00000+0  11611-2 0  9996",
        "tle_line2": "2 31837  98.1004  63.5114 0093572  13.9205 346.4555 14.82268062983777"
      },
      "geometry": {
        "type": "Point",
        "coordinates": [
          63.283359349486254,
          6.854162309832774
        ]
      }
    }
  ]
}